{
  "type": "FeatureCollection",
  "features": [
    {
      "type": "Feature",
      "properties": {
        "norad_id": 24876,
        "name": "GPS BIIR-2  (PRN 13)",
        "group": "gps-ops",
        "lat": -53.870780232686165,
        "lon": -6.275868190422678,
        "alt_km": 20428.49110423018,
        "timestamp": "2025-12-16T13:52:37.782070+00:00",
        "meta_object_name": "GPS BIIR-2  (PRN 13)",
        "meta_object_id": "1997-035A",
        "meta_epoch": "2025-12-15T17:22:46.617024",
        "meta_mean_motion": 2.00563689,
        "meta_eccentricity": 0.00967819,
        "meta_inclination": 55.8967,
        "meta_ra_of_asc_node": 105.7521,
        "meta_arg_of_pericenter": 56.9926,
        "meta_mean_anomaly": 303.9054,
        "meta_ephemeris_type": 0,
        "meta_classification_type": "U",
        "meta_norad_cat_id": 24876,
        "meta_element_set_no": 999,
        "meta_rev_at_epoch": 20827,
        "meta_bstar": 0,
        "meta_mean_motion_dot": -1.8e-07,
        "meta_mean_motion_ddot": 0,
        "tle_line1": "1 24876U 97035A   25349.72415066 -.00000018  00000+0  00000+0 0  9993",
        "tle_line2": "2 24876  55.8967 105.7521 0096781  56.9926 303.9054  2.00563689208270"
      },
      "geometry": {
        "type": "Point",
        "coordinates": [
          -6.275868190422678,
          -53.870780232686165
        ]
      }
    },
    {
      "type": "Feature",
      "properties": {
        "norad_id": 26360,
        "name": "GPS BIIR-4  (PRN 20)",
        "group": "gps-ops",
        "lat": -8.232706132523946,
        "lon": 20.895646689066478,
        "alt_km": 20214.270987507447,
        "timestamp": "2025-12-16T13:52:37.782098+00:00",
        "meta_object_name": "GPS BIIR-4  (PRN 20)",
        "meta_object_id": "2000-025A",
        "meta_epoch": "2025-12-15T19:56:08.503008",
        "meta_mean_motion": 2.00567546,
        "meta_eccentricity": 0.00388892,
        "meta_inclination": 55.047,
        "meta_ra_of_asc_node": 26.7128,
        "meta_arg_of_pericenter": 242.2901,
        "meta_mean_anomaly": 287.4929,
        "meta_ephemeris_type": 0,
        "meta_classification_type": "U",
        "meta_norad_cat_id": 26360,
        "meta_element_set_no": 999,
        "meta_rev_at_epoch": 18759,
        "meta_bstar": 0,
        "meta_mean_motion_dot": -8.9e-07,
        "meta_mean_motion_ddot": 0,
        "tle_line1": "1 26360U 00025A   25349.83065397 -.00000089  00000+0  00000+0 0  9994",
        "tle_line2": "2 26360  55.0470  26.7128 0038889 242.2901 287.4929  2.00567546187598"
      },
      "geometry": {
        "type": "Point",
        "coordinates": [
          20.895646689066478,
          -8.232706132523946
        ]
      }
    },
    {
      "type": "Feature",
      "properties": {
        "norad_id": 26407,
        "name": "GPS BIIR-5  (PRN 22)",
        "group": "gps-ops",
        "lat": -6.407434788874177,
        "lon": 46.95331241789411,
        "alt_km": 20315.781942593545,
        "timestamp": "2025-12-16T13:52:37.782115+00:00",
        "meta_object_name": "GPS BIIR-5  (PRN 22)",
        "meta_object_id": "2000-040A",
        "meta_epoch": "2025-12-15T19:56:10.961952",
        "meta_mean_motion": 2.00568071,
        "meta_eccentricity": 0.01258483,
        "meta_inclination": 54.8901,
        "meta_ra_of_asc_node": 222.446,
        "meta_arg_of_pericenter": 301.8641,
        "meta_mean_anomaly": 67.563,
        "meta_ephemeris_type": 0,
        "meta_classification_type": "U",
        "meta_norad_cat_id": 26407,
        "meta_element_set_no": 999,
        "meta_rev_at_epoch": 18627,
        "meta_bstar": 0,
        "meta_mean_motion_dot": 5.6e-07,
        "meta_mean_motion_ddot": 0,
        "tle_line1": "1 26407U 00040A   25349.83068243  .00000056  00000+0  00000+0 0  9999",
        "tle_line2": "2 26407  54.8901 222.4460 0125848 301.8641  67.5630  2.00568071186279"
      },
      "geometry": {
        "type": "Point",
        "coordinates": [
          46.95331241789411,
          -6.407434788874177
        ]
      }
    },
    {
      "type": "Feature",
      "properties": {
        "norad_id": 27663,
        "name": "GPS BIIR-8  (PRN 16)",
        "group": "gps-ops",
        "lat": -29.249351715732768,
        "lon": -160.92019756926743,
        "alt_km": 20169.045100086725,
        "timestamp": "2025-12-16T13:52:37.782128+00:00",
        "meta_object_name": "GPS BIIR-8  (PRN 16)",
        "meta_object_id": "2003-005A",
        "meta_epoch": "2025-12-15T15:27:32.010336",
        "meta_mean_motion": 2.00570814,
        "meta_eccentricity": 0.01475727,
        "meta_inclination": 54.9227,
        "meta_ra_of_asc_node": 222.2628,
        "meta_arg_of_pericenter": 51.8406,
        "meta_mean_anomaly": 318.7887,
        "meta_ephemeris_type": 0,
        "meta_classification_type": "U",
        "meta_norad_cat_id": 27663,
        "meta_element_set_no": 999,
        "meta_rev_at_epoch": 16763,
        "meta_bstar": 0,
        "meta_mean_motion_dot": 5.5e-07,
        "meta_mean_motion_ddot": 0,
        "tle_line1": "1 27663U 03005A   25349.64412049  .00000055  00000+0  00000+0 0  9993",
        "tle_line2": "2 27663  54.9227 222.2628 0147572  51.8406 318.7887  2.00570814167631"
      },
      "geometry": {
        "type": "Point",
        "coordinates": [
          -160.92019756926743,
          -29.249351715732768
        ]
      }
    },
    {
      "type": "Feature",
      "properties": {
        "norad_id": 28190,
        "name": "GPS BIIR-11 (PRN 19)",
        "group": "gps-ops",
        "lat": 43.47447287378385,
        "lon": 61.449946481397696,
        "alt_km": 19971.281971341577,
        "timestamp": "2025-12-16T13:52:37.782140+00:00",
        "meta_object_name": "GPS BIIR-11 (PRN 19)",
        "meta_object_id": "2004-009A",
        "meta_epoch": "2025-12-14T15:49:47.343936",
        "meta_mean_motion": 2.00560762,
        "meta_eccentricity": 0.01083648,
        "meta_inclination": 54.9839,
        "meta_ra_of_asc_node": 283.1415,
        "meta_arg_of_pericenter": 167.6892,
        "meta_mean_anomaly": 10.6801,
        "meta_ephemeris_type": 0,
        "meta_classification_type": "U",
        "meta_norad_cat_id": 28190,
        "meta_element_set_no": 999,
        "meta_rev_at_epoch": 15924,
        "meta_bstar": 0,
        "meta_mean_motion_dot": -7.9e-07,
        "meta_mean_motion_ddot": 0,
        "tle_line1": "1 28190U 04009A   25348.65957574 -.00000079  00000+0  00000+0 0  9998",
        "tle_line2": "2 28190  54.9839 283.1415 0108364 167.6892  10.6801  2.00560762159240"
      },
      "geometry": {
        "type": "Point",
        "coordinates": [
          61.449946481397696,
          43.47447287378385
        ]
      }
    },
    {
      "type": "Feature",
      "properties": {
        "norad_id": 28474,
        "name": "GPS BIIR-13 (PRN 02)",
        "group": "gps-ops",
        "lat": -1.965778634575943,
        "lon": 153.60580918460184,
        "alt_km": 20450.039813640764,
        "timestamp": "2025-12-16T13:52:37.782153+00:00",
        "meta_object_name": "GPS BIIR-13 (PRN 02)",
        "meta_object_id": "2004-045A",
        "meta_epoch": "2025-12-15T08:55:34.317408",
        "meta_mean_motion": 2.00569721,
        "meta_eccentricity": 0.01708177,
        "meta_inclination": 55.2393,
        "meta_ra_of_asc_node": 332.2998,
        "meta_arg_of_pericenter": 309.3676,
        "meta_mean_anomaly": 83.5283,
        "meta_ephemeris_type": 0,
        "meta_classification_type": "U",
        "meta_norad_cat_id": 28474,
        "meta_element_set_no": 999,
        "meta_rev_at_epoch": 15474,
        "meta_bstar": 0,
        "meta_mean_motion_dot": -9.1e-07,
        "meta_mean_motion_ddot": 0,
        "tle_line1": "1 28474U 04045A   25349.37192497 -.00000091  00000+0  00000+0 0  9992",
        "tle_line2": "2 28474  55.2393 332.2998 0170817 309.3676  83.5283  2.00569721154740"
      },
      "geometry": {
        "type": "Point",
        "coordinates": [
          153.60580918460184,
          -1.965778634575943
        ]
      }
    },
    {
      "type": "Feature",
      "properties": {
        "norad_id": 28874,
        "name": "GPS BIIRM-1 (PRN 17)",
        "group": "gps-ops",
        "lat": 30.118825436896614,
        "lon": 76.60741101475257,
        "alt_km": 20483.376016310824,
        "timestamp": "2025-12-16T13:52:37.782164+00:00",
        "meta_object_name": "GPS BIIRM-1 (PRN 17)",
        "meta_object_id": "2005-038A",
        "meta_epoch": "2025-12-15T21:22:37.236864",
        "meta_mean_motion": 2.00578274,
        "meta_eccentricity": 0.01315557,
        "meta_inclination": 55.0291,
        "meta_ra_of_asc_node": 280.574,
        "meta_arg_of_pericenter": 293.6034,
        "meta_mean_anomaly": 72.8859,
        "meta_ephemeris_type": 0,
        "meta_classification_type": "U",
        "meta_norad_cat_id": 28874,
        "meta_element_set_no": 999,
        "meta_rev_at_epoch": 14816,
        "meta_bstar": 0,
        "meta_mean_motion_dot": -6.8e-07,
        "meta_mean_motion_ddot": 0,
        "tle_line1": "1 28874U 05038A   25349.89070876 -.00000068  00000+0  00000+0 0  9996",
        "tle_line2": "2 28874  55.0291 280.5740 0131555 293.6034  72.8859  2.00578274148160"
      },
      "geometry": {
        "type": "Point",
        "coordinates": [
          76.60741101475257,
          30.118825436896614
        ]
      }
    }
  ]
}